OBJECT_NAME,OBJECT_ID,EPOCH,MEAN_MOTION,ECCENTRICITY,INCLINATION,RA_OF_ASC_NODE,ARG_OF_PERICENTER,MEAN_ANOMALY,EPHEMERIS_TYPE,CLASSIFICATION_TYPE,NORAD_CAT_ID,ELEMENT_SET_NO,REV_AT_EPOCH,BSTAR,MEAN_MOTION_DOT,MEAN_MOTION_DDOT
INTELSAT 21 (IS-21),2012-045A,2026-06-09T06:13:01.867296,1.00267645,.00017055,0.0254,280.1453,176.9501,195.8000,0,U,38749,999,5044,0,-.268E-5,0
INTELSAT 23 (IS-23),2012-057A,2026-06-09T04:19:38.532576,1.00274773,.00004673,0.0104,345.9313,117.0400,166.5175,0,U,38867,999,4987,0,-.268E-5,0
FM-6,2013-058A,2026-06-08T15:06:37.024416,1.00255605,.00027713,0.0107,82.6412,69.5183,215.1325,0,U,39360,999,4598,0,.3E-7,0
INTELSAT 30 (IS-30),2014-062A,2026-06-09T05:56:15.645984,1.00268225,.00009017,0.0207,36.9615,354.5900,220.0363,0,U,40271,999,671,0,-.133E-5,0
DIRECTV 14,2014-078B,2026-06-09T01:17:09.208320,1.00271044,.00002356,0.0091,1.3268,206.1301,330.0282,0,U,40333,999,4196,0,-.109E-5,0
DIRECTV 15,2015-026A,2026-06-09T00:52:13.105056,1.00272723,.00005417,0.0035,71.5412,190.7091,265.3619,0,U,40663,999,4038,0,-.86E-6,0
SKY MEXICO-1,2015-026B,2026-06-09T04:48:11.765088,1.00271300,.00021442,0.0142,294.5315,162.1434,154.1592,0,U,40664,999,4037,0,-.218E-5,0
INTELSAT 34 (IS-34),2015-039A,2026-06-09T06:13:46.795296,1.00283386,.00010598,0.0132,314.3372,71.8928,269.3837,0,U,40874,999,3955,0,-.269E-5,0
INTELSAT 31 (IS-31),2016-035A,2026-06-09T05:56:15.666720,1.00270941,.00009213,0.0207,261.7205,344.8969,5.0340,0,U,41581,999,3660,0,-.134E-5,0
INTELSAT 36 (IS-36),2016-053A,2026-06-09T05:06:28.899072,1.00270500,.00018987,0.0107,348.5946,347.6666,66.4482,0,U,41747,999,3587,0,-.7E-7,0
INTELSAT 32E (IS-32E),2017-007B,2026-06-09T02:04:35.551776,1.00274840,.0000672,0.0023,348.0424,336.8096,280.6015,0,U,41945,999,3414,0,-.252E-5,0
INTELSAT 35E (IS-35E),2017-041A,2026-06-09T06:19:46.221024,1.00271523,.00016083,0.0188,5.7538,72.5158,239.8454,0,U,42818,999,3273,0,-.221E-5,0
INTELSAT 37E (IS-37E),2017-059A,2026-06-09T06:33:38.579616,1.00268411,.00023106,0.0198,355.9385,106.2847,235.8339,0,U,42950,999,3198,0,0,0
AZERSPACE 2 (IS-38),2018-074A,2026-06-09T04:59:52.032768,1.00271429,.00013498,0.0026,18.9119,58.5830,300.1708,0,U,43632,999,2836,0,.153E-5,0
HORIZONS-3E,2018-074B,2026-06-09T03:52:26.934240,1.00270197,.00009565,0.0093,158.1609,124.5481,201.9406,0,U,43633,999,2826,0,-.14E-6,0
AT&T T-16,2019-034A,2026-06-09T06:00:53.370144,1.00268760,.00006243,0.0225,64.6989,191.7212,350.5742,0,U,44333,999,2555,0,-.98E-6,0
INTELSAT 39 (IS-39),2019-049B,2026-06-09T00:09:47.202048,1.00266551,.00011559,0.0162,310.4453,11.0959,0.2561,0,U,44476,999,2504,0,.51E-6,0
GALAXY 30 (G-30),2020-056C,2026-06-09T05:54:01.528128,1.00273309,.00021696,0.0171,310.9936,122.8496,147.2883,0,U,46114,999,2121,0,.53E-6,0
GALAXY 33 (G-33),2022-128A,2026-06-09T06:37:38.296416,1.00271382,.00018479,0.0121,308.7866,135.9909,139.3033,0,U,54026,999,1366,0,.96E-6,0
GALAXY 34 (G-34),2022-128B,2026-06-08T23:02:06.902304,1.00274719,.00018617,0.0154,329.7482,136.9348,7.2031,0,U,54027,999,1383,0,.75E-6,0
GALAXY 31 (G-31),2022-153A,2026-06-09T05:19:50.692800,1.00272096,.00012865,0.0144,269.1002,167.7691,139.6994,0,U,54243,999,705,0,.3E-6,0
GALAXY 32 (G-32),2022-153B,2026-06-08T23:12:58.360032,1.00271040,.0002186,0.0093,329.2269,68.0568,117.3143,0,U,54244,999,1306,0,-.158E-5,0
GALAXY 35 (G-35),2022-170A,2026-06-09T06:03:00.665856,1.00271206,.0002039,0.0325,103.1895,338.0192,174.0810,0,U,54741,999,1281,0,-.145E-5,0
GALAXY 36 (G-36),2022-170B,2026-06-09T06:04:15.546144,1.00270864,.00026568,0.0152,151.4867,291.7430,176.4718,0,U,54742,999,1269,0,-.168E-5,0
GALAXY 37 (G-37),2023-112A,2026-06-09T05:53:24.088416,1.00271774,.00019133,0.0184,352.1249,87.6694,139.1860,0,U,57493,999,1046,0,.65E-6,0
